ONEWEB-0098             
1 45442U 20020U   25211.14633517 -.00000461  00000+0 -13368-2 0  9999
2 45442  87.8814  85.2467 0001792  71.2562 288.8761 13.11417719260431
ONEWEB-0055             
1 45443U 20020V   25211.20568330 -.00000269  00000+0 -79449-3 0  9996
2 45443  87.8806  85.2371 0001762  77.0152 283.1173 13.11415795260429
ONEWEB-0093             
1 45444U 20020W   25211.18124709  .00000604  00000+0  16680-2 0  9990
2 45444  87.8812  85.2264 0001996  91.7021 268.4336 13.11416214260485
ONEWEB-0029             
1 45445U 20020X   25211.34980404  .00000121  00000+0  30527-3 0  9992
2 45445  87.8810  85.2048 0001880  82.0041 278.1300 13.11415715260485
ONEWEB-0068             
1 45446U 20020Y   25211.56245348  .00000548  00000+0  15112-2 0  9993
2 45446  87.8813  85.1512 0001919  81.9673 278.1672 13.11417990260452
ONEWEB-0046             
1 45447U 20020Z   25210.71484936  .00000543  00000+0  14957-2 0  9999
2 45447  87.8814  85.3305 0001737  87.6144 272.5182 13.11416958260345
ONEWEB-0063             
1 45448U 20020AA  25211.20144301  .00000120  00000+0  30263-3 0  9994
2 45448  87.8814  85.2313 0001559  84.0637 276.0669 13.11414653260499
ONEWEB-0019             
1 45449U 20020AB  25210.71739069  .00000540  00000+0  14865-2 0  9996
2 45449  87.8811  85.3458 0001845  77.8254 282.3080 13.11418167260278
